CCSDS_OMM_VERS = 2.0
CREATION_DATE  = 
ORIGINATOR     = 

OBJECT_NAME    = SZ-21 MODULE
OBJECT_ID      = 2025-246C
CENTER_NAME    = EARTH
REF_FRAME      = TEME
TIME_SYSTEM    = UTC
MEAN_ELEMENT_THEORY = SGP/SGP4

EPOCH          = 2025-11-30T12:27:52.631424
MEAN_MOTION    = 15.61610790
ECCENTRICITY   = .0005518
INCLINATION    = 41.4761
RA_OF_ASC_NODE = 90.5441
ARG_OF_PERICENTER = 186.5766
MEAN_ANOMALY   = 173.5001

EPHEMERIS_TYPE = 0
CLASSIFICATION_TYPE = U
NORAD_CAT_ID   = 66515
ELEMENT_SET_NO = 999
REV_AT_EPOCH   = 253
BSTAR          = .34028E-3
MEAN_MOTION_DOT = .29903E-3
MEAN_MOTION_DDOT = 0

CCSDS_OMM_VERS = 2.0
CREATION_DATE  = 
ORIGINATOR     = 

OBJECT_NAME    = STARLINK-35924
OBJECT_ID      = 2025-265A
CENTER_NAME    = EARTH
REF_FRAME      = TEME
TIME_SYSTEM    = UTC
MEAN_ELEMENT_THEORY = SGP/SGP4

EPOCH          = 2025-11-30T12:00:04.000320
MEAN_MOTION    = 15.79247668
ECCENTRICITY   = .0001667
INCLINATION    = 42.9995
RA_OF_ASC_NODE = 127.0605
ARG_OF_PERICENTER = 268.1628
MEAN_ANOMALY   = 350.4491

EPHEMERIS_TYPE = 0
CLASSIFICATION_TYPE = U
NORAD_CAT_ID   = 66516
ELEMENT_SET_NO = 999
REV_AT_EPOCH   = 300
BSTAR          = -.83108E-2
MEAN_MOTION_DOT = -.1372812E-1
MEAN_MOTION_DDOT = 0

CCSDS_OMM_VERS = 2.0
CREATION_DATE  = 
ORIGINATOR     = 

OBJECT_NAME    = STARLINK-35937
OBJECT_ID      = 2025-265B
CENTER_NAME    = EARTH
REF_FRAME      = TEME
TIME_SYSTEM    = UTC
MEAN_ELEMENT_THEORY = SGP/SGP4

EPOCH          = 2025-11-30T12:00:04.000320
MEAN_MOTION    = 15.79222265
ECCENTRICITY   = .0001604
INCLINATION    = 42.9995
RA_OF_ASC_NODE = 127.0557
ARG_OF_PERICENTER = 268.3352
MEAN_ANOMALY   = 352.3727

EPHEMERIS_TYPE = 0
CLASSIFICATION_TYPE = U
NORAD_CAT_ID   = 66517
ELEMENT_SET_NO = 999
REV_AT_EPOCH   = 302
BSTAR          = -.83281E-2
MEAN_MOTION_DOT = -.137388E-1
MEAN_MOTION_DDOT = 0

CCSDS_OMM_VERS = 2.0
CREATION_DATE  = 
ORIGINATOR     = 

OBJECT_NAME    = STARLINK-35962
OBJECT_ID      = 2025-265C
CENTER_NAME    = EARTH
REF_FRAME      = TEME
TIME_SYSTEM    = UTC
MEAN_ELEMENT_THEORY = SGP/SGP4

EPOCH          = 2025-11-30T12:00:04.000320
MEAN_MOTION    = 15.79223180
ECCENTRICITY   = .0001609
INCLINATION    = 42.9994
RA_OF_ASC_NODE = 127.0505
ARG_OF_PERICENTER = 271.5300
MEAN_ANOMALY   = 351.1697

EPHEMERIS_TYPE = 0
CLASSIFICATION_TYPE = U
NORAD_CAT_ID   = 66518
ELEMENT_SET_NO = 999
REV_AT_EPOCH   = 302
BSTAR          = -.84253E-2
MEAN_MOTION_DOT = -.1388217E-1
MEAN_MOTION_DDOT = 0

CCSDS_OMM_VERS = 2.0
CREATION_DATE  = 
ORIGINATOR     = 

OBJECT_NAME    = STARLINK-35931
OBJECT_ID      = 2025-265D
CENTER_NAME    = EARTH
REF_FRAME      = TEME
TIME_SYSTEM    = UTC
MEAN_ELEMENT_THEORY = SGP/SGP4

EPOCH          = 2025-11-30T12:00:04.000320
MEAN_MOTION    = 15.79183775
ECCENTRICITY   = .0001607
INCLINATION    = 42.9995
RA_OF_ASC_NODE = 127.0447
ARG_OF_PERICENTER = 267.6835
MEAN_ANOMALY   = 357.1924

EPHEMERIS_TYPE = 0
CLASSIFICATION_TYPE = U
NORAD_CAT_ID   = 66519
ELEMENT_SET_NO = 999
REV_AT_EPOCH   = 302
BSTAR          = -.84624E-2
MEAN_MOTION_DOT = -.1391409E-1
MEAN_MOTION_DDOT = 0

CCSDS_OMM_VERS = 2.0
CREATION_DATE  = 
ORIGINATOR     = 

OBJECT_NAME    = STARLINK-35952
OBJECT_ID      = 2025-265E
CENTER_NAME    = EARTH
REF_FRAME      = TEME
TIME_SYSTEM    = UTC
MEAN_ELEMENT_THEORY = SGP/SGP4

EPOCH          = 2025-11-30T12:00:04.000320
MEAN_MOTION    = 15.79148425
ECCENTRICITY   = .0001414
INCLINATION    = 42.9994
RA_OF_ASC_NODE = 127.0392
ARG_OF_PERICENTER = 271.7043
MEAN_ANOMALY   = 355.3545

EPHEMERIS_TYPE = 0
CLASSIFICATION_TYPE = U
NORAD_CAT_ID   = 66520
ELEMENT_SET_NO = 999
REV_AT_EPOCH   = 302
BSTAR          = -.85663E-2
MEAN_MOTION_DOT = -.1404434E-1
MEAN_MOTION_DDOT = 0

CCSDS_OMM_VERS = 2.0
CREATION_DATE  = 
ORIGINATOR     = 

OBJECT_NAME    = STARLINK-35915
OBJECT_ID      = 2025-265F
CENTER_NAME    = EARTH
REF_FRAME      = TEME
TIME_SYSTEM    = UTC
MEAN_ELEMENT_THEORY = SGP/SGP4

EPOCH          = 2025-11-30T12:00:04.000320
MEAN_MOTION    = 15.79157074
ECCENTRICITY   = .0001469
INCLINATION    = 42.9994
RA_OF_ASC_NODE = 127.0342
ARG_OF_PERICENTER = 271.2526
MEAN_ANOMALY   = 357.7359

EPHEMERIS_TYPE = 0
CLASSIFICATION_TYPE = U
NORAD_CAT_ID   = 66521
ELEMENT_SET_NO = 999
REV_AT_EPOCH   = 302
BSTAR          = -.86136E-2
MEAN_MOTION_DOT = -.1411844E-1
MEAN_MOTION_DDOT = 0

CCSDS_OMM_VERS = 2.0
CREATION_DATE  = 
ORIGINATOR     = 

OBJECT_NAME    = STARLINK-35946
OBJECT_ID      = 2025-265G
CENTER_NAME    = EARTH
REF_FRAME      = TEME
TIME_SYSTEM    = UTC
MEAN_ELEMENT_THEORY = SGP/SGP4

EPOCH          = 2025-11-30T12:00:04.000320
MEAN_MOTION    = 15.79109235
ECCENTRICITY   = .0001614
INCLINATION    = 42.9993
RA_OF_ASC_NODE = 127.0288
ARG_OF_PERICENTER = 270.7443
MEAN_ANOMALY   = 0.4745

EPHEMERIS_TYPE = 0
CLASSIFICATION_TYPE = U
NORAD_CAT_ID   = 66522
ELEMENT_SET_NO = 999
REV_AT_EPOCH   = 302
BSTAR          = -.86805E-2
MEAN_MOTION_DOT = -.1418906E-1
MEAN_MOTION_DDOT = 0

CCSDS_OMM_VERS = 2.0
CREATION_DATE  = 
ORIGINATOR     = 

OBJECT_NAME    = STARLINK-35969
OBJECT_ID      = 2025-265H
CENTER_NAME    = EARTH
REF_FRAME      = TEME
TIME_SYSTEM    = UTC
MEAN_ELEMENT_THEORY = SGP/SGP4

EPOCH          = 2025-11-30T12:00:04.000320
MEAN_MOTION    = 15.79076539
ECCENTRICITY   = .000157
INCLINATION    = 42.9996
RA_OF_ASC_NODE = 127.0234
ARG_OF_PERICENTER = 269.1817
MEAN_ANOMALY   = 4.1815

EPHEMERIS_TYPE = 0
CLASSIFICATION_TYPE = U
NORAD_CAT_ID   = 66523
ELEMENT_SET_NO = 999
REV_AT_EPOCH   = 302
BSTAR          = -.87431E-2
MEAN_MOTION_DOT = -.142604E-1
MEAN_MOTION_DDOT = 0

CCSDS_OMM_VERS = 2.0
CREATION_DATE  = 
ORIGINATOR     = 

OBJECT_NAME    = STARLINK-35687
OBJECT_ID      = 2025-265J
CENTER_NAME    = EARTH
REF_FRAME      = TEME
TIME_SYSTEM    = UTC
MEAN_ELEMENT_THEORY = SGP/SGP4

EPOCH          = 2025-11-30T12:00:04.000320
MEAN_MOTION    = 15.79040125
ECCENTRICITY   = .0001604
INCLINATION    = 42.9994
RA_OF_ASC_NODE = 127.0176
ARG_OF_PERICENTER = 270.4474
MEAN_ANOMALY   = 5.0946

EPHEMERIS_TYPE = 0
CLASSIFICATION_TYPE = U
NORAD_CAT_ID   = 66524
ELEMENT_SET_NO = 999
REV_AT_EPOCH   = 302
BSTAR          = -.88327E-2
MEAN_MOTION_DOT = -.1436878E-1
MEAN_MOTION_DDOT = 0

CCSDS_OMM_VERS = 2.0
CREATION_DATE  = 
ORIGINATOR     = 

OBJECT_NAME    = STARLINK-35975
OBJECT_ID      = 2025-265K
CENTER_NAME    = EARTH
REF_FRAME      = TEME
TIME_SYSTEM    = UTC
MEAN_ELEMENT_THEORY = SGP/SGP4

EPOCH          = 2025-11-30T12:00:04.000320
MEAN_MOTION    = 15.79023295
ECCENTRICITY   = .0001472
INCLINATION    = 42.9995
RA_OF_ASC_NODE = 127.0127
ARG_OF_PERICENTER = 262.6417
MEAN_ANOMALY   = 14.9413

EPHEMERIS_TYPE = 0
CLASSIFICATION_TYPE = U
NORAD_CAT_ID   = 66525
ELEMENT_SET_NO = 999
REV_AT_EPOCH   = 302
BSTAR          = -.88369E-2
MEAN_MOTION_DOT = -.1436409E-1
MEAN_MOTION_DDOT = 0

CCSDS_OMM_VERS = 2.0
CREATION_DATE  = 
ORIGINATOR     = 

OBJECT_NAME    = STARLINK-35932
OBJECT_ID      = 2025-265L
CENTER_NAME    = EARTH
REF_FRAME      = TEME
TIME_SYSTEM    = UTC
MEAN_ELEMENT_THEORY = SGP/SGP4

EPOCH          = 2025-11-30T12:00:04.000320
MEAN_MOTION    = 15.78990680
ECCENTRICITY   = .0001437
INCLINATION    = 42.9997
RA_OF_ASC_NODE = 127.0074
ARG_OF_PERICENTER = 272.3746
MEAN_ANOMALY   = 7.3687

EPHEMERIS_TYPE = 0
CLASSIFICATION_TYPE = U
NORAD_CAT_ID   = 66526
ELEMENT_SET_NO = 999
REV_AT_EPOCH   = 291
BSTAR          = -.89607E-2
MEAN_MOTION_DOT = -.1452255E-1
MEAN_MOTION_DDOT = 0

