SZ-21 MODULE            
1 66515U 25246C   25334.51935916  .00029903  00000+0  34028-3 0  9990
2 66515  41.4761  90.5441 0005518 186.5766 173.5001 15.61610790  2532
STARLINK-35924          
1 66516U 25265A   25334.50004630 -.01372812  00000+0 -83108-2 0  9996
2 66516  42.9995 127.0605 0001667 268.1628 350.4491 15.79247668  3002
STARLINK-35937          
1 66517U 25265B   25334.50004630 -.01373880  00000+0 -83281-2 0  9995
2 66517  42.9995 127.0557 0001604 268.3352 352.3727 15.79222265  3027
STARLINK-35962          
1 66518U 25265C   25334.50004630 -.01388217  00000+0 -84253-2 0  9996
2 66518  42.9994 127.0505 0001609 271.5300 351.1697 15.79223180  3024
STARLINK-35931          
1 66519U 25265D   25334.50004630 -.01391409  00000+0 -84624-2 0  9996
2 66519  42.9995 127.0447 0001607 267.6835 357.1924 15.79183775  3022
STARLINK-35952          
1 66520U 25265E   25334.50004630 -.01404434  00000+0 -85663-2 0  9995
2 66520  42.9994 127.0392 0001414 271.7043 355.3545 15.79148425  3027
STARLINK-35915          
1 66521U 25265F   25334.50004630 -.01411844  00000+0 -86136-2 0  9995
2 66521  42.9994 127.0342 0001469 271.2526 357.7359 15.79157074  3023
STARLINK-35946          
1 66522U 25265G   25334.50004630 -.01418906  00000+0 -86805-2 0  9995
2 66522  42.9993 127.0288 0001614 270.7443   0.4745 15.79109235  3023
STARLINK-35969          
1 66523U 25265H   25334.50004630 -.01426040  00000+0 -87431-2 0  9990
2 66523  42.9996 127.0234 0001570 269.1817   4.1815 15.79076539  3025
STARLINK-35687          
1 66524U 25265J   25334.50004630 -.01436878  00000+0 -88327-2 0  9996
2 66524  42.9994 127.0176 0001604 270.4474   5.0946 15.79040125  3028
STARLINK-35975          
1 66525U 25265K   25334.50004630 -.01436409  00000+0 -88369-2 0  9993
2 66525  42.9995 127.0127 0001472 262.6417  14.9413 15.79023295  3026
STARLINK-35932          
1 66526U 25265L   25334.50004630 -.01452255  00000+0 -89607-2 0  9997
2 66526  42.9997 127.0074 0001437 272.3746   7.3687 15.78990680  2910
